[{"OBJECT_NAME":"KUIPER-00127","OBJECT_ID":"2025-228K","EPOCH":"2026-03-03T07:47:17.460960","MEAN_MOTION":14.76347939,"ECCENTRICITY":0.0001406,"INCLINATION":51.901,"RA_OF_ASC_NODE":20.0175,"ARG_OF_PERICENTER":171.8581,"MEAN_ANOMALY":188.2403,"EPHEMERIS_TYPE":0,"CLASSIFICATION_TYPE":"U","NORAD_CAT_ID":65956,"ELEMENT_SET_NO":999,"REV_AT_EPOCH":2241,"BSTAR":0.00063051,"MEAN_MOTION_DOT":4.205e-5,"MEAN_MOTION_DDOT":0},{"OBJECT_NAME":"KUIPER-00128","OBJECT_ID":"2025-228L","EPOCH":"2026-03-03T02:02:42.829152","MEAN_MOTION":14.79831526,"ECCENTRICITY":8.15e-5,"INCLINATION":51.9022,"RA_OF_ASC_NODE":22.3193,"ARG_OF_PERICENTER":96.763,"MEAN_ANOMALY":263.3425,"EPHEMERIS_TYPE":0,"CLASSIFICATION_TYPE":"U","NORAD_CAT_ID":65957,"ELEMENT_SET_NO":999,"REV_AT_EPOCH":2235,"BSTAR":0.00078709,"MEAN_MOTION_DOT":5.77e-5,"MEAN_MOTION_DDOT":0},{"OBJECT_NAME":"KUIPER-00129","OBJECT_ID":"2025-228M","EPOCH":"2026-03-03T02:59:29.914656","MEAN_MOTION":14.79937379,"ECCENTRICITY":0.0001003,"INCLINATION":51.9022,"RA_OF_ASC_NODE":17.1328,"ARG_OF_PERICENTER":84.9197,"MEAN_ANOMALY":275.188,"EPHEMERIS_TYPE":0,"CLASSIFICATION_TYPE":"U","NORAD_CAT_ID":65958,"ELEMENT_SET_NO":999,"REV_AT_EPOCH":2243,"BSTAR":0.00032028,"MEAN_MOTION_DOT":2.221e-5,"MEAN_MOTION_DDOT":0},{"OBJECT_NAME":"KUIPER-00130","OBJECT_ID":"2025-228N","EPOCH":"2026-03-03T02:07:23.183328","MEAN_MOTION":14.79978214,"ECCENTRICITY":0.0001124,"INCLINATION":51.9039,"RA_OF_ASC_NODE":19.8005,"ARG_OF_PERICENTER":93.3998,"MEAN_ANOMALY":266.7093,"EPHEMERIS_TYPE":0,"CLASSIFICATION_TYPE":"U","NORAD_CAT_ID":65959,"ELEMENT_SET_NO":999,"REV_AT_EPOCH":1268,"BSTAR":0.00079583,"MEAN_MOTION_DOT":5.857e-5,"MEAN_MOTION_DDOT":0},{"OBJECT_NAME":"KUIPER-00134","OBJECT_ID":"2025-228P","EPOCH":"2026-03-03T05:17:34.729440","MEAN_MOTION":15.38347653,"ECCENTRICITY":0.0005306,"INCLINATION":51.8771,"RA_OF_ASC_NODE":351.7148,"ARG_OF_PERICENTER":301.7919,"MEAN_ANOMALY":58.2551,"EPHEMERIS_TYPE":0,"CLASSIFICATION_TYPE":"U","NORAD_CAT_ID":65960,"ELEMENT_SET_NO":999,"REV_AT_EPOCH":2279,"BSTAR":0.0011217,"MEAN_MOTION_DOT":0.00042941,"MEAN_MOTION_DDOT":0},{"OBJECT_NAME":"KUIPER-00135","OBJECT_ID":"2025-228Q","EPOCH":"2026-03-03T06:10:05.360736","MEAN_MOTION":14.79925586,"ECCENTRICITY":9.06e-5,"INCLINATION":51.9036,"RA_OF_ASC_NODE":19.1148,"ARG_OF_PERICENTER":79.6421,"MEAN_ANOMALY":280.4644,"EPHEMERIS_TYPE":0,"CLASSIFICATION_TYPE":"U","NORAD_CAT_ID":65961,"ELEMENT_SET_NO":999,"REV_AT_EPOCH":2241,"BSTAR":-0.00059258,"MEAN_MOTION_DOT":-4.735e-5,"MEAN_MOTION_DDOT":0},{"OBJECT_NAME":"KUIPER-00136","OBJECT_ID":"2025-228R","EPOCH":"2026-03-03T02:10:36.119712","MEAN_MOTION":14.79843077,"ECCENTRICITY":0.0001382,"INCLINATION":51.9018,"RA_OF_ASC_NODE":17.3224,"ARG_OF_PERICENTER":95.3717,"MEAN_ANOMALY":264.7403,"EPHEMERIS_TYPE":0,"CLASSIFICATION_TYPE":"U","NORAD_CAT_ID":65962,"ELEMENT_SET_NO":999,"REV_AT_EPOCH":2242,"BSTAR":0.00083429,"MEAN_MOTION_DOT":6.131e-5,"MEAN_MOTION_DDOT":0},{"OBJECT_NAME":"KUIPER-00137","OBJECT_ID":"2025-228S","EPOCH":"2026-03-01T03:24:47.850336","MEAN_MOTION":14.83494519,"ECCENTRICITY":0.00020155,"INCLINATION":51.9033,"RA_OF_ASC_NODE":23.4733,"ARG_OF_PERICENTER":145.013,"MEAN_ANOMALY":215.0966,"EPHEMERIS_TYPE":0,"CLASSIFICATION_TYPE":"U","NORAD_CAT_ID":65963,"ELEMENT_SET_NO":999,"REV_AT_EPOCH":2217,"BSTAR":0.00075902351,"MEAN_MOTION_DOT":6.08e-5,"MEAN_MOTION_DDOT":0},{"OBJECT_NAME":"KUIPER-00138","OBJECT_ID":"2025-228T","EPOCH":"2026-03-03T01:29:56.848128","MEAN_MOTION":14.79937998,"ECCENTRICITY":8.73e-5,"INCLINATION":51.8998,"RA_OF_ASC_NODE":12.3968,"ARG_OF_PERICENTER":85.0417,"MEAN_ANOMALY":275.0645,"EPHEMERIS_TYPE":0,"CLASSIFICATION_TYPE":"U","NORAD_CAT_ID":65964,"ELEMENT_SET_NO":999,"REV_AT_EPOCH":2249,"BSTAR":-0.0001342,"MEAN_MOTION_DOT":-1.244e-5,"MEAN_MOTION_DDOT":0},{"OBJECT_NAME":"KUIPER-00140","OBJECT_ID":"2025-228U","EPOCH":"2026-03-03T01:26:04.288704","MEAN_MOTION":14.79923925,"ECCENTRICITY":0.0001024,"INCLINATION":51.9005,"RA_OF_ASC_NODE":14.9919,"ARG_OF_PERICENTER":82.9053,"MEAN_ANOMALY":277.2025,"EPHEMERIS_TYPE":0,"CLASSIFICATION_TYPE":"U","NORAD_CAT_ID":65965,"ELEMENT_SET_NO":999,"REV_AT_EPOCH":2245,"BSTAR":0.00039238,"MEAN_MOTION_DOT":2.771e-5,"MEAN_MOTION_DDOT":0},{"OBJECT_NAME":"KUIPER-00141","OBJECT_ID":"2025-228V","EPOCH":"2026-03-03T01:34:10.379424","MEAN_MOTION":14.79817464,"ECCENTRICITY":0.0001418,"INCLINATION":51.9048,"RA_OF_ASC_NODE":9.9768,"ARG_OF_PERICENTER":48.0934,"MEAN_ANOMALY":312.0149,"EPHEMERIS_TYPE":0,"CLASSIFICATION_TYPE":"U","NORAD_CAT_ID":65966,"ELEMENT_SET_NO":999,"REV_AT_EPOCH":2252,"BSTAR":-0.00030902,"MEAN_MOTION_DOT":-2.57e-5,"MEAN_MOTION_DDOT":0},{"OBJECT_NAME":"KUIPER-00146","OBJECT_ID":"2025-228W","EPOCH":"2026-03-03T01:30:35.449920","MEAN_MOTION":14.76448298,"ECCENTRICITY":0.0001148,"INCLINATION":51.9036,"RA_OF_ASC_NODE":12.1533,"ARG_OF_PERICENTER":105.09,"MEAN_ANOMALY":255.0187,"EPHEMERIS_TYPE":0,"CLASSIFICATION_TYPE":"U","NORAD_CAT_ID":65967,"ELEMENT_SET_NO":999,"REV_AT_EPOCH":2249,"BSTAR":0.00058838,"MEAN_MOTION_DOT":3.919e-5,"MEAN_MOTION_DDOT":0},{"OBJECT_NAME":"KUIPER-00149","OBJECT_ID":"2025-228X","EPOCH":"2026-03-03T03:15:01.399104","MEAN_MOTION":14.79933685,"ECCENTRICITY":0.0001571,"INCLINATION":51.9032,"RA_OF_ASC_NODE":7.0836,"ARG_OF_PERICENTER":63.6344,"MEAN_ANOMALY":296.4779,"EPHEMERIS_TYPE":0,"CLASSIFICATION_TYPE":"U","NORAD_CAT_ID":65968,"ELEMENT_SET_NO":999,"REV_AT_EPOCH":2257,"BSTAR":0.00089157,"MEAN_MOTION_DOT":6.582e-5,"MEAN_MOTION_DDOT":0},{"OBJECT_NAME":"KUIPER-00154","OBJECT_ID":"2025-228Y","EPOCH":"2026-03-03T05:44:40.766208","MEAN_MOTION":14.79945539,"ECCENTRICITY":5.57e-5,"INCLINATION":51.902,"RA_OF_ASC_NODE":4.1283,"ARG_OF_PERICENTER":127.2491,"MEAN_ANOMALY":232.8522,"EPHEMERIS_TYPE":0,"CLASSIFICATION_TYPE":"U","NORAD_CAT_ID":65969,"ELEMENT_SET_NO":999,"REV_AT_EPOCH":2262,"BSTAR":0.0003156,"MEAN_MOTION_DOT":2.186e-5,"MEAN_MOTION_DDOT":0},{"OBJECT_NAME":"KUIPER-00157","OBJECT_ID":"2025-228Z","EPOCH":"2026-03-03T05:40:50.487744","MEAN_MOTION":14.79948403,"ECCENTRICITY":6.79e-5,"INCLINATION":51.9037,"RA_OF_ASC_NODE":6.7499,"ARG_OF_PERICENTER":48.2866,"MEAN_ANOMALY":311.8154,"EPHEMERIS_TYPE":0,"CLASSIFICATION_TYPE":"U","NORAD_CAT_ID":65970,"ELEMENT_SET_NO":999,"REV_AT_EPOCH":2258,"BSTAR":0.00089408,"MEAN_MOTION_DOT":6.604e-5,"MEAN_MOTION_DDOT":0},{"OBJECT_NAME":"KUIPER-00144","OBJECT_ID":"2025-301A","EPOCH":"2026-03-03T06:52:54.162336","MEAN_MOTION":15.38123737,"ECCENTRICITY":0.0007959,"INCLINATION":51.8683,"RA_OF_ASC_NODE":96.0651,"ARG_OF_PERICENTER":8.6599,"MEAN_ANOMALY":351.4524,"EPHEMERIS_TYPE":0,"CLASSIFICATION_TYPE":"U","NORAD_CAT_ID":67133,"ELEMENT_SET_NO":999,"REV_AT_EPOCH":1275,"BSTAR":0.00099029,"MEAN_MOTION_DOT":0.00037581,"MEAN_MOTION_DDOT":0},{"OBJECT_NAME":"KUIPER-00164","OBJECT_ID":"2025-301B","EPOCH":"2026-03-03T12:00:00.998784","MEAN_MOTION":15.19005733,"ECCENTRICITY":0.0004244,"INCLINATION":51.8783,"RA_OF_ASC_NODE":96.2351,"ARG_OF_PERICENTER":41.3346,"MEAN_ANOMALY":155.2157,"EPHEMERIS_TYPE":0,"CLASSIFICATION_TYPE":"U","NORAD_CAT_ID":67134,"ELEMENT_SET_NO":999,"REV_AT_EPOCH":553,"BSTAR":0.0017277,"MEAN_MOTION_DOT":0.00036506,"MEAN_MOTION_DDOT":0}]
